NORAD_CAT_ID,OBJECT_NAME,OBJECT_TYPE,EPOCH,MEAN_MOTION,ECCENTRICITY,INCLINATION,RA_OF_ASC_NODE,ARG_OF_PERICENTER,MEAN_ANOMALY,BSTAR,MEAN_MOTION_DOT,MEAN_MOTION_DDOT,TLE_LINE0,TLE_LINE1,TLE_LINE2,SEMIMAJOR_AXIS,PERIOD,APOGEE,PERIGEE,DECAYED
55633.0,STARLINK-5498,PAYLOAD,2023-11-26 19:47:21,14.98329896,0.00027,69.9989,146.9125,264.0019,96.0832,1.7989e-05,1.22e-06,0.0,0 STARLINK-5498,1 55633U 23021F   23330.82455765  .00000122  00000-0  17989-4 0  9996,2 55633  69.9989 146.9125 0002700 264.0019  96.0832 14.98329896 43096,6950.193,96.107,573.935,570.182,0.0
55633.0,STARLINK-5498,PAYLOAD,2023-11-26 21:23:29,14.98329606,0.0002697,69.9989,146.7442,263.9826,96.1026,1.2374e-05,5.5e-07,0.0,0 STARLINK-5498,1 55633U 23021F   23330.89131767  .00000055  00000-0  12374-4 0  9994,2 55633  69.9989 146.7442 0002697 263.9826  96.1026 14.98329606 43405,6950.194,96.107,573.934,570.185,0.0
55633.0,STARLINK-5498,PAYLOAD,2023-11-27 15:00:58,14.98330669,0.0002652,69.9991,144.8929,259.5447,100.5413,-3.238e-05,-4.79e-06,0.0,0 STARLINK-5498,1 55633U 23021F   23331.62567757 -.00000479  00000-0 -32380-4 0  9999,2 55633  69.9991 144.8929 0002652 259.5447 100.5413 14.98330669 43511,6950.191,96.107,573.899,570.213,0.0
55633.0,STARLINK-5498,PAYLOAD,2023-11-27 21:25:30,14.98329591,0.0002673,69.9992,144.2198,260.734,99.3517,-4.6461e-05,-6.47e-06,0.0,0 STARLINK-5498,1 55633U 23021F   23331.89271847 -.00000647  00000-0 -46461-4 0  9992,2 55633  69.9992 144.2198 0002673 260.7340  99.3517 14.98329591 43559,6950.194,96.107,573.917,570.201,0.0
55633.0,STARLINK-5498,PAYLOAD,2023-11-28 15:02:59,14.98330804,0.0002794,69.9991,142.3679,264.4436,95.6405,6.176e-05,6.44e-06,0.0,0 STARLINK-5498,1 55633U 23021F   23332.62707488  .00000644  00000-0  61760-4 0  9993,2 55633  69.9991 142.3679 0002794 264.4436  95.6405 14.98330804 43668,6950.19,96.107,573.997,570.114,0.0
55633.0,STARLINK-5498,PAYLOAD,2023-11-28 19:51:23,14.98330906,0.0002853,69.9993,141.8634,266.3347,93.7486,5.7109e-05,5.88e-06,0.0,0 STARLINK-5498,1 55633U 23021F   23332.82735506  .00000588  00000-0  57109-4 0  9996,2 55633  69.9993 141.8634 0002853 266.3347  93.7486 14.98330906 43697,6950.19,96.107,574.038,570.072,0.0
55633.0,STARLINK-5498,PAYLOAD,2023-11-29 11:52:44,14.98328052,0.0002824,69.9995,140.1806,265.4906,94.5931,5.5224e-05,5.66e-06,0.0,0 STARLINK-5498,1 55633U 23021F   23333.49495740  .00000566  00000-0  55224-4 0  9995,2 55633  69.9995 140.1806 0002824 265.4906  94.5931 14.98328052 43492,6950.199,96.107,574.027,570.101,0.0
55633.0,STARLINK-5498,PAYLOAD,2023-11-29 13:28:52,14.98328303,0.000283,69.9995,140.0122,265.363,94.7206,5.7019e-05,5.87e-06,0.0,0 STARLINK-5498,1 55633U 23021F   23333.56171739  .00000587  00000-0  57019-4 0  9999,2 55633  69.9995 140.0122 0002830 265.3630  94.7206 14.98328303 43803,6950.198,96.107,574.03,570.096,0.0
55633.0,STARLINK-5498,PAYLOAD,2023-11-30 11:54:45,14.98333876,0.0002848,69.9995,137.6551,268.4152,91.6681,5.759e-05,5.94e-06,0.0,0 STARLINK-5498,1 55633U 23021F   23334.49635434  .00000594  00000-0  57590-4 0  9991,2 55633  69.9995 137.6551 0002848 268.4152  91.6681 14.98333876 43649,6950.181,96.107,574.025,570.066,0.0
55633.0,STARLINK-5498,PAYLOAD,2023-12-01 11:56:46,14.9833064,0.0002861,69.9993,135.1303,267.6537,92.4295,5.1183e-05,5.18e-06,0.0,0 STARLINK-5498,1 55633U 23021F   23335.49775514  .00000518  00000-0  51183-4 0  9994,2 55633  69.9993 135.1303 0002861 267.6537  92.4295 14.98330640 43790,6950.191,96.107,574.044,570.067,0.0
55633.0,STARLINK-5498,PAYLOAD,2023-12-01 19:57:26,14.98331562,0.000283,69.9992,134.2883,264.9688,95.1148,5.9135e-05,6.13e-06,0.0,0 STARLINK-5498,1 55633U 23021F   23335.83155393  .00000613  00000-0  59135-4 0  9990,2 55633  69.9992 134.2883 0002830 264.9688  95.1148 14.98331562 44146,6950.188,96.107,574.02,570.086,0.0
55633.0,STARLINK-5498,PAYLOAD,2023-12-02 11:58:46,14.98339249,0.0002839,69.9992,132.6048,264.9302,95.1533,7.829e-05,8.41e-06,0.0,0 STARLINK-5498,1 55633U 23021F   23336.49914687  .00000841  00000-0  78290-4 0  9998,2 55633  69.9992 132.6048 0002839 264.9302  95.1533 14.98339249 43948,6950.164,96.106,574.002,570.056,0.0
55633.0,STARLINK-5498,PAYLOAD,2023-12-02 13:34:54,14.98337014,0.0002842,69.9992,132.4367,263.8827,96.2009,6.4916e-05,6.82e-06,0.0,0 STARLINK-5498,1 55633U 23021F   23336.56590783  .00000682  00000-0  64916-4 0  9996,2 55633  69.9992 132.4367 0002842 263.8827  96.2009 14.98337014 44257,6950.171,96.107,574.011,570.061,0.0
55633.0,STARLINK-5498,PAYLOAD,2023-12-02 19:59:26,14.9833836,0.000279,69.999,131.7627,262.4213,97.6629,6.899e-05,7.3e-06,0.0,0 STARLINK-5498,1 55633U 23021F   23336.83294575  .00000730  00000-0  68990-4 0  9996,2 55633  69.9990 131.7627 0002790 262.4213  97.6629 14.98338360 44294,6950.167,96.106,573.971,570.093,0.0
55633.0,STARLINK-5498,PAYLOAD,2023-12-03 12:00:48,14.98316289,0.000279,70.0025,130.0864,259.0381,101.0464,-2.2383e-05,-3.6e-06,0.0,0 STARLINK-5498,1 55633U 23021F   23337.50056396 -.00000360  00000-0 -22383-4 0  9995,2 55633  70.0025 130.0864 0002790 259.0381 101.0464 14.98316289 44090,6950.235,96.108,574.039,570.161,0.0
55633.0,STARLINK-5498,PAYLOAD,2023-12-03 13:36:56,14.98316879,0.0003114,69.9988,129.9112,267.3304,92.7499,-0.00011625,-1.479e-05,0.0,0 STARLINK-5498,1 55633U 23021F   23337.56732622 -.00001479  00000-0 -11625-3 0  9992,2 55633  69.9988 129.9112 0003114 267.3304  92.7499 14.98316879 44400,6950.233,96.108,574.263,569.934,0.0
55633.0,STARLINK-5498,PAYLOAD,2023-12-04 12:02:50,14.98317664,0.0002996,69.9994,127.5533,266.4788,93.6028,-4.5135e-05,-6.31e-06,0.0,0 STARLINK-5498,1 55633U 23021F   23338.50196961 -.00000631  00000-0 -45135-4 0  9990,2 55633  69.9994 127.5533 0002996 266.4788  93.6028 14.98317664 44244,6950.231,96.108,574.178,570.014,0.0
55633.0,STARLINK-5498,PAYLOAD,2023-12-04 13:38:58,14.9831939,0.0003021,69.9988,127.3846,267.389,92.6923,-4.2723e-05,-6.03e-06,0.0,0 STARLINK-5498,1 55633U 23021F   23338.56872899 -.00000603  00000-0 -42723-4 0  9996,2 55633  69.9988 127.3846 0003021 267.3890  92.6923 14.98319390 44551,6950.226,96.108,574.19,569.991,0.0
55633.0,STARLINK-5498,PAYLOAD,2023-12-05 12:04:50,14.98323244,0.0003189,69.9987,125.0303,267.3559,92.7235,0.00021038,2.418e-05,0.0,0 STARLINK-5498,1 55633U 23021F   23339.50336412  .00002418  00000-0  21038-3 0  9996,2 55633  69.9987 125.0303 0003189 267.3559  92.7235 14.98323244 44392,6950.214,96.107,574.295,569.862,0.0
55633.0,STARLINK-5498,PAYLOAD,2023-12-06 12:06:50,14.98338847,0.0002923,69.9987,122.5049,261.0795,99.0033,0.00017856,2.039e-05,0.0,0 STARLINK-5498,1 55633U 23021F   23340.50475477  .00002039  00000-0  17856-3 0  9995,2 55633  69.9987 122.5049 0002923 261.0795  99.0033 14.98338847 44547,6950.166,96.106,574.062,569.999,0.0
55633.0,STARLINK-5498,PAYLOAD,2023-12-06 20:07:30,14.9834003,0.0002937,69.9987,121.6633,261.5916,98.491,0.0001723,1.964e-05,0.0,0 STARLINK-5498,1 55633U 23021F   23340.83855203  .00001964  00000-0  17230-3 0  9992,2 55633  69.9987 121.6633 0002937 261.5916  98.4910 14.98340030 44893,6950.162,96.106,574.068,569.986,0.0
55633.0,STARLINK-5498,PAYLOAD,2023-12-07 12:08:51,14.98337409,0.0002647,69.9984,119.979,240.9463,119.1431,-2.7131e-05,-4.17e-06,0.0,0 STARLINK-5498,1 55633U 23021F   23341.50615515 -.00000417  00000-0 -27131-4 0  9993,2 55633  69.9984 119.9790 0002647 240.9463 119.1431 14.98337409 44693,6950.17,96.107,573.875,570.195,0.0
55633.0,STARLINK-5498,PAYLOAD,2023-12-08 12:10:52,14.98334713,0.0002615,69.9997,117.4554,238.3421,121.7483,-4.655e-05,-6.48e-06,0.0,0 STARLINK-5498,1 55633U 23021F   23342.50755318 -.00000648  00000-0 -46550-4 0  9992,2 55633  69.9997 117.4554 0002615 238.3421 121.7483 14.98334713 44846,6950.178,96.107,573.861,570.226,0.0
55633.0,STARLINK-5498,PAYLOAD,2023-12-08 18:35:24,14.98333173,0.0002692,69.9991,116.7812,249.8826,110.2044,-8.2817e-05,-1.081e-05,0.0,0 STARLINK-5498,1 55633U 23021F   23342.77459482 -.00001081  00000-0 -82817-4 0  9992,2 55633  69.9991 116.7812 0002692 249.8826 110.2044 14.98333173 45183,6950.183,96.107,573.919,570.177,0.0
55633.0,STARLINK-5498,PAYLOAD,2023-12-09 12:12:53,14.98329565,0.0002899,69.9988,114.9295,260.6828,99.4003,4.5315e-05,4.48e-06,0.0,0 STARLINK-5498,1 55633U 23021F   23343.50895211  .00000448  00000-0  45315-4 0  9994,2 55633  69.9988 114.9295 0002899 260.6828  99.4003 14.98329565 44997,6950.194,96.107,574.074,570.044,0.0
55633.0,STARLINK-5498,PAYLOAD,2023-12-10 12:14:54,14.98333134,0.000291,70.0001,112.4077,261.301,98.7819,3.372e-05,3.09e-06,0.0,0 STARLINK-5498,1 55633U 23021F   23344.51034969  .00000309  00000-0  33720-4 0  9994,2 55633  70.0001 112.4077 0002910 261.3010  98.7819 14.98333134 45144,6950.183,96.107,574.071,570.026,0.0
55633.0,STARLINK-5498,PAYLOAD,2023-12-10 13:51:02,14.98333275,0.0002906,70.0001,112.2392,261.1616,98.9214,3.5194e-05,3.27e-06,0.0,0 STARLINK-5498,1 55633U 23021F   23344.57710944  .00000327  00000-0  35194-4 0  9991,2 55633  70.0001 112.2392 0002906 261.1616  98.9214 14.98333275 45458,6950.183,96.107,574.067,570.028,0.0
55633.0,STARLINK-5498,PAYLOAD,2023-12-10 18:39:26,14.98337452,0.0002897,69.9999,111.7339,261.2217,98.8614,7.654e-05,8.21e-06,0.0,0 STARLINK-5498,1 55633U 23021F   23344.77738482  .00000821  00000-0  76540-4 0  9999,2 55633  69.9999 111.7339 0002897 261.2217  98.8614 14.98337452 45480,6950.17,96.107,574.048,570.021,0.0
55633.0,STARLINK-5498,PAYLOAD,2023-12-11 12:16:55,14.98331354,0.0002681,70.0007,109.8837,249.9522,110.1348,2.6074e-05,2.18e-06,0.0,0 STARLINK-5498,1 55633U 23021F   23345.51174792  .00000218  00000-0  26074-4 0  9997,2 55633  70.0007 109.8837 0002681 249.9522 110.1348 14.98331354 45293,6950.189,96.107,573.917,570.19,0.0
55633.0,STARLINK-5498,PAYLOAD,2023-12-11 18:41:27,14.98327549,0.0002819,70.0003,109.2101,256.4021,103.6825,-1.3892e-05,-2.59e-06,0.0,0 STARLINK-5498,1 55633U 23021F   23345.77879184 -.00000259  00000-0 -13892-4 0  9993,2 55633  70.0003 109.2101 0002819 256.4021 103.6825 14.98327549 45633,6950.2,96.107,574.025,570.106,0.0
